start=new Date('2023-01-15T00:00:00.000Z').valueOf();
sats=[{"OBJECT_NAME":"STARLINK-2614","MEAN_MOTION_DOT":"0.00003912","OBJECT_TYPE":"PAYLOAD","COUNTRY_CODE":"US","GP_ID":"223023835","CENTER_NAME":"EARTH","EPOCH":"2023-01-14T13:36:25.220448","ELEMENT_SET_NO":"999","OBJECT_ID":"2021-038AD","FILE":"3745063","REF_FRAME":"TEME","ARG_OF_PERICENTER":"51.2060","APOAPSIS":"548.123","BSTAR":"0.00028122000000","RA_OF_ASC_NODE":"114.7267","PERIOD":"95.591","MEAN_ANOMALY":"308.9055","TLE_LINE2":"2 48380  53.0547 114.7267 0001420  51.2060 308.9055 15.06424110 94409","MEAN_MOTION":"15.06424110","DECAY_DATE":null,"PERIAPSIS":"546.156","REV_AT_EPOCH":"9440","LAUNCH_DATE":"2021-05-04","MEAN_ELEMENT_THEORY":"SGP4","NORAD_CAT_ID":"48380","SEMIMAJOR_AXIS":"6925.275","RCS_SIZE":"LARGE","INCLINATION":"53.0547","SITE":"AFETR","CLASSIFICATION_TYPE":"U","TLE_LINE1":"1 48380U 21038AD  23014.56695857  .00003912  00000-0  28122-3 0  9991","TIME_SYSTEM":"UTC","EPHEMERIS_TYPE":"0","MEAN_MOTION_DDOT":"0.0000000000000","ECCENTRICITY":"0.00014200"},{"MEAN_MOTION_DOT":"0.00022240","OBJECT_NAME":"STARLINK-2630","GP_ID":"222997799","COUNTRY_CODE":"US","OBJECT_TYPE":"PAYLOAD","CENTER_NAME":"EARTH","ELEMENT_SET_NO":"999","EPOCH":"2023-01-14T12:55:23.627424","OBJECT_ID":"2021-038AE","FILE":"3744695","APOAPSIS":"548.191","REF_FRAME":"TEME","ARG_OF_PERICENTER":"46.7485","BSTAR":"0.00150700000000","RA_OF_ASC_NODE":"114.8629","PERIOD":"95.592","MEAN_ANOMALY":"313.3624","TLE_LINE2":"2 48381  53.0527 114.8629 0001440  46.7485 313.3624 15.06406599 94406","REV_AT_EPOCH":"9440","PERIAPSIS":"546.196","LAUNCH_DATE":"2021-05-04","NORAD_CAT_ID":"48381","MEAN_ELEMENT_THEORY":"SGP4","DECAY_DATE":null,"MEAN_MOTION":"15.06406599","RCS_SIZE":"LARGE","SEMIMAJOR_AXIS":"6925.328","SITE":"AFETR","INCLINATION":"53.0527","TLE_LINE1":"1 48381U 21038AE  23014.53846791  .00022240  00000-0  15070-2 0  9996","CLASSIFICATION_TYPE":"U","MEAN_MOTION_DDOT":"0.0000000000000","ECCENTRICITY":"0.00014400","TIME_SYSTEM":"UTC","EPHEMERIS_TYPE":"0"},{"CLASSIFICATION_TYPE":"U","TLE_LINE1":"1 48382U 21038AF  23014.60111588  .00004973  00000-0  35241-3 0  9990","EPHEMERIS_TYPE":"0","TIME_SYSTEM":"UTC","MEAN_MOTION_DDOT":"0.0000000000000","ECCENTRICITY":"0.00009880","SEMIMAJOR_AXIS":"6925.320","RCS_SIZE":"LARGE","INCLINATION":"53.0536","SITE":"AFETR","MEAN_MOTION":"15.06409327","DECAY_DATE":null,"LAUNCH_DATE":"2021-05-04","MEAN_ELEMENT_THEORY":"SGP4","NORAD_CAT_ID":"48382","REV_AT_EPOCH":"9441","PERIAPSIS":"546.501","PERIOD":"95.592","TLE_LINE2":"2 48382  53.0536 114.5644 0000988  91.5943 268.5159 15.06409327 94411","MEAN_ANOMALY":"268.5159","ARG_OF_PERICENTER":"91.5943","REF_FRAME":"TEME","APOAPSIS":"547.869","RA_OF_ASC_NODE":"114.5644","BSTAR":"0.00035241000000","EPOCH":"2023-01-14T14:25:36.412032","ELEMENT_SET_NO":"999","FILE":"3745119","OBJECT_ID":"2021-038AF","COUNTRY_CODE":"US","OBJECT_TYPE":"PAYLOAD","GP_ID":"223024953","CENTER_NAME":"EARTH","OBJECT_NAME":"STARLINK-2585","MEAN_MOTION_DOT":"0.00004973"},{"OBJECT_NAME":"STARLINK-2599","MEAN_MOTION_DOT":"0.00003293","OBJECT_TYPE":"PAYLOAD","COUNTRY_CODE":"US","GP_ID":"223024986","CENTER_NAME":"EARTH","EPOCH":"2023-01-14T15:55:50.270592","ELEMENT_SET_NO":"999","OBJECT_ID":"2021-038AG","FILE":"3745121","REF_FRAME":"TEME","ARG_OF_PERICENTER":"62.4599","APOAPSIS":"548.119","BSTAR":"0.00023977000000","RA_OF_ASC_NODE":"114.2934","PERIOD":"95.591","MEAN_ANOMALY":"297.6529","TLE_LINE2":"2 48383  53.0545 114.2934 0001370  62.4599 297.6529 15.06414158 94413","MEAN_MOTION":"15.06414158","DECAY_DATE":null,"PERIAPSIS":"546.221","REV_AT_EPOCH":"9441","NORAD_CAT_ID":"48383","LAUNCH_DATE":"2021-05-04","MEAN_ELEMENT_THEORY":"SGP4","SEMIMAJOR_AXIS":"6925.305","RCS_SIZE":"LARGE","INCLINATION":"53.0545","SITE":"AFETR","TLE_LINE1":"1 48383U 21038AG  23014.66377628  .00003293  00000-0  23977-3 0  9993","CLASSIFICATION_TYPE":"U","TIME_SYSTEM":"UTC","EPHEMERIS_TYPE":"0","ECCENTRICITY":"0.00013700","MEAN_MOTION_DDOT":"0.0000000000000"},{"BSTAR":"-0.00009662700000","RA_OF_ASC_NODE":"114.9043","REF_FRAME":"TEME","ARG_OF_PERICENTER":"54.0932","APOAPSIS":"548.543","OBJECT_ID":"2021-038AH","FILE":"3744825","EPOCH":"2023-01-14T12:39:28.927296","ELEMENT_SET_NO":"999","CENTER_NAME":"EARTH","COUNTRY_CODE":"US","OBJECT_TYPE":"PAYLOAD","GP_ID":"223000861","OBJECT_NAME":"STARLINK-2601","MEAN_MOTION_DOT":"-0.00001720","TIME_SYSTEM":"UTC","EPHEMERIS_TYPE":"0","MEAN_MOTION_DDOT":"0.0000000000000","ECCENTRICITY":"0.00018050","TLE_LINE1":"1 48384U 21038AH  23014.52741814 -.00001720  00000-0 -96627-4 0  9999","CLASSIFICATION_TYPE":"U","INCLINATION":"53.0541","SITE":"AFETR","SEMIMAJOR_AXIS":"6925.428","RCS_SIZE":"LARGE","MEAN_MOTION":"15.06374058","DECAY_DATE":null,"REV_AT_EPOCH":"9439","PERIAPSIS":"546.043","MEAN_ELEMENT_THEORY":"SGP4","LAUNCH_DATE":"2021-05-04","NORAD_CAT_ID":"48384","MEAN_ANOMALY":"306.0225","TLE_LINE2":"2 48384  53.0541 114.9043 0001805  54.0932 306.0225 15.06374058 94398","PERIOD":"95.594"},{"TLE_LINE2":"2 48385  53.0521 117.0093 0000998 100.3372 259.7730 15.06393440 94325","MEAN_ANOMALY":"259.7730","PERIOD":"95.593","MEAN_ELEMENT_THEORY":"SGP4","LAUNCH_DATE":"2021-05-04","NORAD_CAT_ID":"48385","REV_AT_EPOCH":"9432","PERIAPSIS":"546.543","MEAN_MOTION":"15.06393440","DECAY_DATE":null,"SITE":"AFETR","INCLINATION":"53.0521","RCS_SIZE":"LARGE","SEMIMAJOR_AXIS":"6925.369","ECCENTRICITY":"0.00009980","MEAN_MOTION_DDOT":"0.0000000000000","EPHEMERIS_TYPE":"0","TIME_SYSTEM":"UTC","TLE_LINE1":"1 48385U 21038AJ  23014.05929116  .00009455  00000-0  65287-3 0  9999","CLASSIFICATION_TYPE":"U","MEAN_MOTION_DOT":"0.00009455","OBJECT_NAME":"STARLINK-2598","CENTER_NAME":"EARTH","GP_ID":"222986998","OBJECT_TYPE":"PAYLOAD","COUNTRY_CODE":"US","FILE":"3744180","OBJECT_ID":"2021-038AJ","EPOCH":"2023-01-14T01:25:22.756224","ELEMENT_SET_NO":"999","RA_OF_ASC_NODE":"117.0093","BSTAR":"0.00065287000000","APOAPSIS":"547.925","ARG_OF_PERICENTER":"100.3372","REF_FRAME":"TEME"},{"MEAN_MOTION_DOT":"-0.00001457","OBJECT_NAME":"STARLINK-2606","CENTER_NAME":"EARTH","GP_ID":"222998085","OBJECT_TYPE":"PAYLOAD","COUNTRY_CODE":"US","FILE":"3744718","OBJECT_ID":"2021-038AK","ELEMENT_SET_NO":"999","EPOCH":"2023-01-14T10:40:42.943872","RA_OF_ASC_NODE":"110.2893","BSTAR":"-0.00007895700000","APOAPSIS":"548.384","ARG_OF_PERICENTER":"75.9653","REF_FRAME":"TEME","MEAN_ANOMALY":"284.1514","TLE_LINE2":"2 48386  53.0548 110.2893 0001602  75.9653 284.1514 15.06380001 94455","PERIOD":"95.593","LAUNCH_DATE":"2021-05-04","NORAD_CAT_ID":"48386","MEAN_ELEMENT_THEORY":"SGP4","REV_AT_EPOCH":"9445","PERIAPSIS":"546.165","MEAN_MOTION":"15.06380001","DECAY_DATE":null,"SITE":"AFETR","INCLINATION":"53.0548","RCS_SIZE":"LARGE","SEMIMAJOR_AXIS":"6925.410","MEAN_MOTION_DDOT":"0.0000000000000","ECCENTRICITY":"0.00016020","EPHEMERIS_TYPE":"0","TIME_SYSTEM":"UTC","TLE_LINE1":"1 48386U 21038AK  23014.44494148 -.00001457  00000-0 -78957-4 0  9990","CLASSIFICATION_TYPE":"U"},{"SEMIMAJOR_AXIS":"6925.309","RCS_SIZE":"LARGE","INCLINATION":"53.0520","SITE":"AFETR","TLE_LINE1":"1 48387U 21038AL  23014.54076452  .00007958  00000-0  55236-3 0  9990","CLASSIFICATION_TYPE":"U","TIME_SYSTEM":"UTC","EPHEMERIS_TYPE":"0","ECCENTRICITY":"0.00015990","MEAN_MOTION_DDOT":"0.0000000000000","PERIOD":"95.591","MEAN_ANOMALY":"287.2081","TLE_LINE2":"2 48387  53.0520 109.8178 0001599  72.9083 287.2081 15.06413025 94473","MEAN_MOTION":"15.06413025","DECAY_DATE":null,"PERIAPSIS":"546.066","REV_AT_EPOCH":"9447","NORAD_CAT_ID":"48387","LAUNCH_DATE":"2021-05-04","MEAN_ELEMENT_THEORY":"SGP4","ELEMENT_SET_NO":"999","EPOCH":"2023-01-14T12:58:42.054528","OBJECT_ID":"2021-038AL","FILE":"3744718","REF_FRAME":"TEME","ARG_OF_PERICENTER":"72.9083","APOAPSIS":"548.281","BSTAR":"0.00055236000000","RA_OF_ASC_NODE":"109.8178","OBJECT_NAME":"STARLINK-2600","MEAN_MOTION_DOT":"0.00007958","COUNTRY_CODE":"US","OBJECT_TYPE":"PAYLOAD","GP_ID":"222998089","CENTER_NAME":"EARTH"},{"MEAN_MOTION_DOT":"0.00006142","OBJECT_NAME":"STARLINK-2594","CENTER_NAME":"EARTH","GP_ID":"223025140","OBJECT_TYPE":"PAYLOAD","COUNTRY_CODE":"US","OBJECT_ID":"2021-038AM","FILE":"3745132","EPOCH":"2023-01-14T16:04:28.621344","ELEMENT_SET_NO":"999","BSTAR":"0.00043082000000","RA_OF_ASC_NODE":"109.2685","APOAPSIS":"548.489","REF_FRAME":"TEME","ARG_OF_PERICENTER":"77.6620","MEAN_ANOMALY":"282.4579","TLE_LINE2":"2 48388  53.0519 109.2685 0001874  77.6620 282.4579 15.06407296 94498","PERIOD":"95.592","REV_AT_EPOCH":"9449","PERIAPSIS":"545.893","NORAD_CAT_ID":"48388","LAUNCH_DATE":"2021-05-04","MEAN_ELEMENT_THEORY":"SGP4","DECAY_DATE":null,"MEAN_MOTION":"15.06407296","SITE":"AFETR","INCLINATION":"53.0519","RCS_SIZE":"LARGE","SEMIMAJOR_AXIS":"6925.326","ECCENTRICITY":"0.00018740","MEAN_MOTION_DDOT":"0.0000000000000","TIME_SYSTEM":"UTC","EPHEMERIS_TYPE":"0","CLASSIFICATION_TYPE":"U","TLE_LINE1":"1 48388U 21038AM  23014.66977571  .00006142  00000-0  43082-3 0  9996"},{"ELEMENT_SET_NO":"999","EPOCH":"2023-01-14T15:45:11.774592","OBJECT_ID":"2021-038AN","FILE":"3745132","REF_FRAME":"TEME","ARG_OF_PERICENTER":"84.4650","APOAPSIS":"548.379","BSTAR":"0.00033616000000","RA_OF_ASC_NODE":"104.3154","OBJECT_NAME":"STARLINK-1904","MEAN_MOTION_DOT":"0.00004730","OBJECT_TYPE":"PAYLOAD","COUNTRY_CODE":"US","GP_ID":"223025382","CENTER_NAME":"EARTH","SEMIMAJOR_AXIS":"6925.323","RCS_SIZE":"LARGE","INCLINATION":"53.0516","SITE":"AFETR","CLASSIFICATION_TYPE":"U","TLE_LINE1":"1 48389U 21038AN  23014.65638628  .00004730  00000-0  33616-3 0  9996","TIME_SYSTEM":"UTC","EPHEMERIS_TYPE":"0","MEAN_MOTION_DDOT":"0.0000000000000","ECCENTRICITY":"0.00017200","PERIOD":"95.592","TLE_LINE2":"2 48389  53.0516 104.3154 0001720  84.4650 275.6535 15.06408449 94556","MEAN_ANOMALY":"275.6535","MEAN_MOTION":"15.06408449","DECAY_DATE":null,"REV_AT_EPOCH":"9455","PERIAPSIS":"545.997","NORAD_CAT_ID":"48389","LAUNCH_DATE":"2021-05-04","MEAN_ELEMENT_THEORY":"SGP4"}];
